QIANFAN-60              
1 62790U 25016F   25365.29600325  .00000226  00000+0  33161-3 0  9992
2 62790  88.9761 101.1589 0013986 289.8381  70.1262 13.50990145 49734
QIANFAN-61              
1 62791U 25016G   25365.25477605  .00000199  00000+0  29047-3 0  9999
2 62791  88.9829 101.3386 0012928 289.3988  70.5765 13.50986457 49744
QIANFAN-62              
1 62792U 25016H   25365.25893465  .00000213  00000+0  31067-3 0  9998
2 62792  88.9775 101.1967 0014313 289.7484  70.2123 13.50983138 49730
QIANFAN-63              
1 62793U 25016J   25365.28357789  .00000218  00000+0  31878-3 0  9991
2 62793  88.9782 101.1469 0014376 295.6718  64.2948 13.50981373 49772
QIANFAN-64              
1 62794U 25016K   25365.25066886  .00000190  00000+0  27592-3 0  9991
2 62794  88.9769 101.1219 0012299 287.8457  72.1352 13.50984756 49760
QIANFAN-65              
1 62795U 25016L   25365.24655056  .00000158  00000+0  22638-3 0  9994
2 62795  88.9765 101.1477 0012149 289.8347  70.1494 13.50978356 49749
QIANFAN-66              
1 62796U 25016M   25365.27537674  .00000214  00000+0  31361-3 0  9999
2 62796  88.9785 101.1185 0013261 284.7059  75.2622 13.50983429 49799
QIANFAN-67              
1 62797U 25016N   25365.27957006  .00000205  00000+0  29973-3 0  9991
2 62797  88.9775 101.1418 0013227 292.5486  67.4265 13.50987573 49768
QIANFAN-68              
1 62798U 25016P   25365.27123277  .00000219  00000+0  32119-3 0  9998
2 62798  88.9778 101.1885 0013278 290.5422  69.4304 13.50989998 49741
QIANFAN-69              
1 62799U 25016Q   25365.28768643  .00000209  00000+0  30495-3 0  9996
2 62799  88.9757 101.0522 0014021 291.7674  68.1985 13.50992707 49782
QIANFAN-70              
1 62800U 25016R   25365.30423973  .00000224  00000+0  32781-3 0  9993
2 62800  88.9778 101.1930 0013647 280.7986  79.1629 13.50983674 49745
QIANFAN-71              
1 62801U 25016S   25365.30004523  .00000217  00000+0  31823-3 0  9998
2 62801  88.9772 101.1718 0013952 295.7051  64.2659 13.50983144 49742
QIANFAN-72              
1 62802U 25016T   25365.31649614  .00000209  00000+0  30533-3 0  9994
2 62802  88.9763 101.1816 0017255 303.4799  56.4702 13.50982973 49738
QIANFAN-73              
1 63159U 25046A   25365.19553915  .00000241  00000+0  35408-3 0  9999
2 63159  88.9778 318.1132 0016992  71.4331 288.8665 13.50982758 49901
QIANFAN-74              
1 63160U 25046B   25365.25301348  .00000240  00000+0  35338-3 0  9990
2 63160  88.9778 317.9961 0001988  71.7523 288.3844 13.50979750 49974
QIANFAN-75              
1 63161U 25046C   25365.24025704  .00000294  00000+0  43607-3 0  9996
2 63161  88.9780 318.2313 0018153  73.7858 286.5289 13.50985635 49846
QIANFAN-76              
1 63162U 25046D   25365.23690594  .00000235  00000+0  34504-3 0  9992
2 63162  88.9779 318.2122 0015701  74.3667 285.9216 13.50985044 49852
QIANFAN-77              
1 63163U 25046E   25365.24897797  .00000741  00000+0  53020-3 0  9994
2 63163  88.9779 316.0663 0016247  29.5504 330.6588 13.96105421 51033
QIANFAN-78              
1 63164U 25046F   25365.27780376  .00000263  00000+0  38836-3 0  9999
2 63164  88.9778 318.0718 0017079  76.2088 284.0963 13.50983479 49938
QIANFAN-79              
1 63165U 25046G   25365.30644087  .00000268  00000+0  39661-3 0  9994
2 63165  88.9782 318.1770 0016763  74.6276 285.6726 13.50985317 49884
QIANFAN-80              
1 63166U 25046H   25365.24892409  .00000254  00000+0  37457-3 0  9997
2 63166  88.9780 317.8894 0015734  78.4764 281.8153 13.50983369 50033
QIANFAN-81              
1 63167U 25046J   25365.30102426  .00000246  00000+0  36175-3 0  9995
2 63167  88.9779 317.9519 0016733  68.2099 292.0831 13.51009329 49991
QIANFAN-82              
1 63168U 25046K   25365.26138244  .00000268  00000+0  39615-3 0  9994
2 63168  88.9779 318.0000 0014893  75.2431 285.0370 13.50982347 49979
QIANFAN-83              
1 63169U 25046L   25365.28598889  .00000279  00000+0  34555-3 0  9992
2 63169  88.9780 317.7374 0016136  61.5486 298.7295 13.61981985 50127
QIANFAN-84              
1 63170U 25046M   25365.28904190  .00000239  00000+0  35105-3 0  9998
2 63170  88.9779 318.1297 0017859  72.0274 288.2822 13.50992447 49908
QIANFAN-85              
1 63171U 25046N   25365.28593392  .00000259  00000+0  38230-3 0  9991
2 63171  88.9779 318.0017 0015244  74.0998 286.1832 13.50983311 49974
QIANFAN-86              
1 63172U 25046P   25365.29426624  .00000257  00000+0  37928-3 0  9997
2 63172  88.9781 317.8635 0013121  77.7711 282.4908 13.50982946 50053
QIANFAN-87              
1 63173U 25046Q   25365.19156203  .00000272  00000+0  40242-3 0  9990
2 63173  88.9777 317.9850 0013774  74.0577 286.2091 13.50980377 49973
QIANFAN-88              
1 63174U 25046R   25365.28186868  .00000262  00000+0  38738-3 0  9997
2 63174  88.9780 317.9307 0014170  80.6562 279.6191 13.50987064 50017
QIANFAN-89              
1 63175U 25046S   25365.24473074  .00000278  00000+0  41188-3 0  9992
2 63175  88.9780 318.1236 0018537  72.4539 287.8635 13.50983154 49902
QIANFAN-90              
1 63176U 25046T   25365.27346456  .00000268  00000+0  39606-3 0  9990
2 63176  88.9779 318.0929 0015465  70.9535 289.3290 13.50983163 49921
QIANFAN-91              
1 66033U 25233A   25365.25587471  .00000050  00000+0  53209-4 0  9990
2 66033  88.9939  60.2260 0015255 350.9647   9.1231 13.57810371 10502
QIANFAN-92              
1 66034U 25233B   25364.64384244 -.02026568  00000+0 -31851+1 0  9997
2 66034  88.9920  60.2818 0016288   9.2472 350.8978 13.54130614 10426
QIANFAN-93              
1 66035U 25233C   25365.25715634  .00000054  00000+0  60247-4 0  9990
2 66035  88.9946  60.2278 0013689 350.7019   9.3879 13.55665840 10508
QIANFAN-94              
1 66036U 25233D   25365.21412523  .00000213  00000+0  23424-3 0  9990
2 66036  88.9946  60.2041 0014674 348.4299  11.6523 13.68547737 10517
QIANFAN-95              
1 66037U 25233E   25365.27314710  .00000427  00000+0  24727-3 0  9990
2 66037  88.9945  59.9741 0013625 351.6982   8.3973 14.07042737 10649
QIANFAN-96              
1 66038U 25233F   25365.20832539  .00000040  00000+0  39139-4 0  9993
2 66038  88.9941  60.2385 0014671 355.1648   4.9363 13.57802699 10498
QIANFAN-97              
1 66039U 25233G   25365.21960978  .00000054  00000+0  57838-4 0  9995
2 66039  88.9943  60.2225 0015168 357.8589   2.2499 13.57890331 10502
QIANFAN-98              
1 66040U 25233H   25365.24000240  .00000276  00000+0  24206-3 0  9995
2 66040  88.9936  60.0968 0014022 350.7486   9.3423 13.82582294 10570
QIANFAN-99              
1 66041U 25233J   25365.24491000  .00000040  00000+0  38845-4 0  9998
2 66041  88.9944  60.2259 0014388 351.3887   8.7019 13.57808612 10506
QIANFAN-100             
1 66042U 25233K   25364.44280791  .00000022  00000+0  11020-4 0  9999
2 66042  88.9954  60.2205 0014684 357.5067   2.6017 13.66940209 10449
QIANFAN-101             
1 66043U 25233L   25365.25266866  .00000392  00000+0  15601-3 0  9995
2 66043  88.9943  59.8964 0013775 343.1726  16.9009 14.26687167 10680
QIANFAN-102             
1 66044U 25233M   25365.26140671  .00000205  00000+0  23117-3 0  9996
2 66044  88.9942  60.1921 0014196 352.6044   7.4904 13.66801424 10523
QIANFAN-103             
1 66045U 25233N   25365.24517975  .00000020  00000+0  11107-4 0  9992
2 66045  88.9944  60.2260 0013994 354.1031   5.9957 13.57795829 10501
QIANFAN-104             
1 66046U 25233P   25365.25180259  .00000223  00000+0  23353-3 0  9995
2 66046  88.9946  60.1922 0013648 356.3937   3.7125 13.71546576 10527
QIANFAN-105             
1 66047U 25233Q   25365.23665454  .00000322  00000+0  24809-3 0  9996
2 66047  88.9948  60.1175 0014719 351.9571   8.1364 13.90523558 10569
QIANFAN-106             
1 66048U 25233R   25365.25728552  .00000054  00000+0  57572-4 0  9994
2 66048  88.9932  60.2067 0014382 348.5816  11.5011 13.57812570 10514
QIANFAN-107             
1 66049U 25233S   25365.26255995  .00000058  00000+0  64125-4 0  9998
2 66049  88.9947  60.2114 0014055 353.1707   6.9254 13.57810118 10515
QIANFAN-108             
1 66050U 25233T   25365.24495739  .00000048  00000+0  48202-4 0  9997
2 66050  88.9941  60.2076 0014307 355.2408   4.8610 13.60351334 10516
